ONEWEB-0144             
1 47290U 20100AJ  25353.14157846 -.00000109  00000+0 -33792-3 0  9997
2 47290  87.8936  26.3963 0001453  89.5968 270.5328 13.12534190240958
ONEWEB-0145             
1 47291U 20100AK  25353.11265858 -.00000141  00000+0 -42611-3 0  9994
2 47291  87.8937  26.4410 0001667  95.2362 264.8957 13.12481031241148
ONEWEB-0146             
1 47292U 20100AL  25353.03309895  .00000008  00000+0 -13186-4 0  9993
2 47292  87.8934  26.4430 0002139  95.7595 264.3778 13.12499858241047
ONEWEB-0147             
1 47293U 20100AM  25353.07539986  .00000226  00000+0  59144-3 0  9998
2 47293  87.8929  26.4128 0001837  86.1896 273.9442 13.12475898240948
ONEWEB-0115             
1 48042U 21025A   25353.01569573  .00000195  00000+0  49814-3 0  9995
2 48042  87.8983 356.0244 0001809  90.8198 269.3138 13.13471693229946
ONEWEB-0152             
1 48043U 21025B   25353.02924313 -.00000052  00000+0 -17856-3 0  9999
2 48043  87.8973 356.0279 0001910  89.3945 270.7403 13.13470927229906
ONEWEB-0153             
1 48044U 21025C   25353.31195011  .00000411  00000+0  10896-2 0  9990
2 48044  87.8979 355.9775 0001726  90.8962 269.2365 13.13471466229935
ONEWEB-0154             
1 48045U 21025D   25353.30855848  .00000365  00000+0  96576-3 0  9999
2 48045  87.8979 355.9747 0001766  87.3281 272.8050 13.13472007229892
